[{"OBJECT_NAME":"STARLINK-5926","OBJECT_ID":"2023-037AG","EPOCH":"2026-03-09T21:23:16.268928","MEAN_MOTION":14.98337472,"ECCENTRICITY":0.00027242,"INCLINATION":69.998,"RA_OF_ASC_NODE":283.8156,"ARG_OF_PERICENTER":270.4754,"MEAN_ANOMALY":89.6093,"EPHEMERIS_TYPE":0,"CLASSIFICATION_TYPE":"U","NORAD_CAT_ID":55944,"ELEMENT_SET_NO":999,"REV_AT_EPOCH":16401,"BSTAR":4.3170386e-5,"MEAN_MOTION_DOT":4.22e-6,"MEAN_MOTION_DDOT":0},{"OBJECT_NAME":"PEGASUS DEB","OBJECT_ID":"1994-029AEJ","EPOCH":"2026-03-07T20:29:03.447168","MEAN_MOTION":14.33296857,"ECCENTRICITY":0.02963752,"INCLINATION":81.9754,"RA_OF_ASC_NODE":115.503,"ARG_OF_PERICENTER":180.1454,"MEAN_ANOMALY":179.97,"EPHEMERIS_TYPE":0,"CLASSIFICATION_TYPE":"U","NORAD_CAT_ID":27679,"ELEMENT_SET_NO":999,"REV_AT_EPOCH":25203,"BSTAR":0.00070363427,"MEAN_MOTION_DOT":3.191e-5,"MEAN_MOTION_DDOT":0}]
